{
    "links": {
        "self": "http://www.neowsapp.com/rest/v1/neo/3760587?api_key=iIulBulltgU6a56xZRHN4H3l9WmuAYTsLGpBGhQ2"
    },
    "id": "3760587",
    "neo_reference_id": "3760587",
    "name": "(2016 TN18)",
    "designation": "2016 TN18",
    "nasa_jpl_url": "http://ssd.jpl.nasa.gov/sbdb.cgi?sstr=3760587",
    "absolute_magnitude_h": 24.3,
    "estimated_diameter": {
        "kilometers": {
            "estimated_diameter_min": 0.0366906138,
            "estimated_diameter_max": 0.0820427065
        },
        "meters": {
            "estimated_diameter_min": 36.6906137531,
            "estimated_diameter_max": 82.0427064882
        },
        "miles": {
            "estimated_diameter_min": 0.0227984834,
            "estimated_diameter_max": 0.0509789586
        },
        "feet": {
            "estimated_diameter_min": 120.3760332259,
            "estimated_diameter_max": 269.1689931548
        }
    },
    "is_potentially_hazardous_asteroid": false,
    "close_approach_data": [
        {
            "close_approach_date": "1959-07-24",
            "close_approach_date_full": "1959-Jul-24 04:56",
            "epoch_date_close_approach": -329511840000,
            "relative_velocity": {
                "kilometers_per_second": "11.6636210376",
                "kilometers_per_hour": "41989.0357352916",
                "miles_per_hour": "26090.3538989649"
            },
            "miss_distance": {
                "astronomical": "0.136805967",
                "lunar": "53.217521163",
                "kilometers": "20465881.26649029",
                "miles": "12716908.928094402"
            },
            "orbiting_body": "Earth"
        },
        {
            "close_approach_date": "1966-11-01",
            "close_approach_date_full": "1966-Nov-01 06:25",
            "epoch_date_close_approach": -99941700000,
            "relative_velocity": {
                "kilometers_per_second": "22.7250366159",
                "kilometers_per_hour": "81810.1318172105",
                "miles_per_hour": "50833.6344060884"
            },
            "miss_distance": {
                "astronomical": "0.4738520504",
                "lunar": "184.3284476056",
                "kilometers": "70887257.434972648",
                "miles": "44047299.2696846224"
            },
            "orbiting_body": "Earth"
        },
        {
            "close_approach_date": "2016-09-26",
            "close_approach_date_full": "2016-Sep-26 17:57",
            "epoch_date_close_approach": 1474912620000,
            "relative_velocity": {
                "kilometers_per_second": "9.2003364159",
                "kilometers_per_hour": "33121.2110972731",
                "miles_per_hour": "20580.2325287473"
            },
            "miss_distance": {
                "astronomical": "0.0459966171",
                "lunar": "17.8926840519",
                "kilometers": "6880995.945365577",
                "miles": "4275652.6158038826"
            },
            "orbiting_body": "Earth"
        },
        {
            "close_approach_date": "2156-06-05",
            "close_approach_date_full": "2156-Jun-05 03:24",
            "epoch_date_close_approach": 5883074640000,
            "relative_velocity": {
                "kilometers_per_second": "11.1118923165",
                "kilometers_per_hour": "40002.8123393219",
                "miles_per_hour": "24856.1919227303"
            },
            "miss_distance": {
                "astronomical": "0.0565584131",
                "lunar": "22.0012226959",
                "kilometers": "8461018.130340097",
                "miles": "5257432.8757914586"
            },
            "orbiting_body": "Mars"
        }
    ],
    "orbital_data": {
        "orbit_id": "10",
        "orbit_determination_date": "2017-04-06 08:23:11",
        "first_observation_date": "2016-10-07",
        "last_observation_date": "2016-11-07",
        "data_arc_in_days": 31,
        "observations_used": 46,
        "orbit_uncertainty": "7",
        "minimum_orbit_intersection": ".0432014",
        "jupiter_tisserand_invariant": "3.325",
        "epoch_osculation": "2459000.5",
        "eccentricity": ".571363559808706",
        "semi_major_axis": "2.3351178042943",
        "inclination": "4.243818057582613",
        "ascending_node_longitude": "31.09143663202945",
        "orbital_period": "1303.351690623944",
        "perihelion_distance": "1.00091658306002",
        "perihelion_argument": "309.4501429985834",
        "aphelion_distance": "3.66931902552858",
        "perihelion_time": "2458942.274279934379",
        "mean_anomaly": "16.08258106727052",
        "mean_motion": ".2762109433622323",
        "equinox": "J2000",
        "orbit_class": {
            "orbit_class_type": "APO",
            "orbit_class_description": "Near-Earth asteroid orbits which cross the Earth’s orbit similar to that of 1862 Apollo",
            "orbit_class_range": "a (semi-major axis) > 1.0 AU; q (perihelion) < 1.017 AU"
        }
    },
    "is_sentry_object": false
}